CTC1_L_00308016-03
1 36953U 25910QO  26037.47804398  .00000000  00000+0  00000-0 0  9993
2 36953  40.0000 180.0000 0000000   0.0000   0.0000 14.60983372    15
CTC1_L_00308016-04
1 36954U 26798WQ  26037.47804398  .00000000  00000+0  00000-0 0  9999
2 36954  40.0000 180.0000 0000000   0.0000  90.0000 14.60983372    15
CTC1_L_00308017-01
1 36955U 23432RB  26037.47804398  .00000000  00000+0  00000-0 0  9992
2 36955  40.0000 192.0000 0000000   0.0000 192.0000 14.60983372    12
CTC1_L_00308017-02
1 36956U 22745SR  26037.47804398  .00000000  00000+0  00000-0 0  9999
2 36956  40.0000 192.0000 0000000   0.0000 282.0000 14.60983372    13
CTC1_L_00308017-03
1 36957U 22798MV  26037.47804398  .00000000  00000+0  00000-0 0  9998
2 36957  40.0000 192.0000 0000000   0.0000  12.0000 14.60983372    15
CTC1_L_00308017-04
1 36958U 24165PP  26037.47804398  .00000000  00000+0  00000-0 0  9999
2 36958  40.0000 192.0000 0000000   0.0000 102.0000 14.60983372    16
CTC1_L_00308018-01
1 36959U 25933XC  26037.47804398  .00000000  00000+0  00000-0 0  9994
2 36959  40.0000 204.0000 0000000   0.0000 204.0000 14.60983372    14
CTC1_L_00308018-02
1 36960U 23432SW  26037.47804398  .00000000  00000+0  00000-0 0  9998
2 36960  40.0000 204.0000 0000000   0.0000 294.0000 14.60983372    15
CTC1_L_00308018-03
1 36961U 22275RT  26037.47804398  .00000000  00000+0  00000-0 0  9993
2 36961  40.0000 204.0000 0000000   0.0000  24.0000 14.60983372    17
CTC1_L_00308018-04
1 36962U 24238PN  26037.47804398  .00000000  00000+0  00000-0 0  9995
2 36962  40.0000 204.0000 0000000   0.0000 114.0000 14.60983372    18
CTC1_L_00308019-01
1 36963U 25776PJ  26037.47804398  .00000000  00000+0  00000-0 0  9994
2 36963  40.0000 216.0000 0000000   0.0000 216.0000 14.60983372    15
CTC1_L_00308019-02
1 36964U 22202SF  26037.47804398  .00000000  00000+0  00000-0 0  9996
2 36964  40.0000 216.0000 0000000   0.0000 306.0000 14.60983372    16
CTC1_L_00308019-03
1 36965U 25020XN  26037.47804398  .00000000  00000+0  00000-0 0  9998
2 36965  40.0000 216.0000 0000000   0.0000  36.0000 14.60983372    17
CTC1_L_00308019-04
1 36966U 26483SJ  26037.47804398  .00000000  00000+0  00000-0 0  9993
2 36966  40.0000 216.0000 0000000   0.0000 126.0000 14.60983372    18
CTC1_L_00308020-01
1 36967U 23532ZC  26037.47804398  .00000000  00000+0  00000-0 0  9996
2 36967  40.0000 228.0000 0000000   0.0000 228.0000 14.60983372    15
CTC1_L_00308020-02
1 36968U 25182TA  26037.47804398  .00000000  00000+0  00000-0 0  9990
2 36968  40.0000 228.0000 0000000   0.0000 318.0000 14.60983372    16
CTC1_L_00308020-03
1 36969U 22034SC  26037.47804398  .00000000  00000+0  00000-0 0  9994
2 36969  40.0000 228.0000 0000000   0.0000  48.0000 14.60983372    17
CTC1_L_00308020-04
1 36970U 24635CR  26037.47804398  .00000000  00000+0  00000-0 0  9995
2 36970  40.0000 228.0000 0000000   0.0000 138.0000 14.60983372    19
CTC1_L_00308021-01
1 36971U 26044AG  26037.47804398  .00000000  00000+0  00000-0 0  9992
2 36971  40.0000 240.0000 0000000   0.0000 240.0000 14.60983372    18
CTC1_L_00308021-02
1 36972U 24304LS  26037.47804398  .00000000  00000+0  00000-0 0  9990
2 36972  40.0000 240.0000 0000000   0.0000 330.0000 14.60983372    19
CTC1_L_00308021-03
1 36973U 24886AR  26037.47804398  .00000000  00000+0  00000-0 0  9996
2 36973  40.0000 240.0000 0000000   0.0000  60.0000 14.60983372    10
CTC1_L_00308021-04
1 36974U 25654PO  26037.47804398  .00000000  00000+0  00000-0 0  9991
2 36974  40.0000 240.0000 0000000   0.0000 150.0000 14.60983372    11
CTC1_L_00308022-01
1 36975U 23467NL  26037.47804398  .00000000  00000+0  00000-0 0  9992
2 36975  40.0000 252.0000 0000000   0.0000 252.0000 14.60983372    18
CTC1_L_00308022-02
1 36976U 23903FZ  26037.47804398  .00000000  00000+0  00000-0 0  9998
2 36976  40.0000 252.0000 0000000   0.0000 342.0000 14.60983372    19
CTC1_L_00308022-03
1 36977U 23400CS  26037.47804398  .00000000  00000+0  00000-0 0  9991
2 36977  40.0000 252.0000 0000000   0.0000  72.0000 14.60983372    10
CTC1_L_00308022-04
1 36978U 22791M   26037.47804398  .00000000  00000+0  00000-0 0  9994
2 36978  40.0000 252.0000 0000000   0.0000 162.0000 14.60983372    11
CTC1_L_00308023-01
1 36979U 25110SG  26037.47804398  .00000000  00000+0  00000-0 0  9993
2 36979  40.0000 264.0000 0000000   0.0000 264.0000 14.60983372    18
CTC1_L_00308023-02
1 36980U 25993JQ  26037.47804398  .00000000  00000+0  00000-0 0  9994
2 36980  40.0000 264.0000 0000000   0.0000 354.0000 14.60983372    10
CTC1_L_00308023-03
1 36981U 26741BT  26037.47804398  .00000000  00000+0  00000-0 0  9997
2 36981  40.0000 264.0000 0000000   0.0000  84.0000 14.60983372    11
CTC1_L_00308023-04
1 36982U 25002LG  26037.47804398  .00000000  00000+0  00000-0 0  9997
2 36982  40.0000 264.0000 0000000   0.0000 174.0000 14.60983372    12
CTC1_L_00308024-01
1 36983U 23892PD  26037.47804398  .00000000  00000+0  00000-0 0  9993
2 36983  40.0000 276.0000 0000000   0.0000 276.0000 14.60983372    19
CTC1_L_00308024-02
1 36984U 25650IH  26037.47804398  .00000000  00000+0  00000-0 0  9998
2 36984  40.0000 276.0000 0000000   0.0000   6.0000 14.60983372    11
CTC1_L_00308024-03
1 36985U 26647VJ  26037.47804398  .00000000  00000+0  00000-0 0  9996
2 36985  40.0000 276.0000 0000000   0.0000  96.0000 14.60983372    11
CTC1_L_00308024-04
1 36986U 23375DI  26037.47804398  .00000000  00000+0  00000-0 0  9992
2 36986  40.0000 276.0000 0000000   0.0000 186.0000 14.60983372    12
CTC1_L_00308025-01
1 36987U 26755AC  26037.47804398  .00000000  00000+0  00000-0 0  9998
2 36987  40.0000 288.0000 0000000   0.0000 288.0000 14.60983372    19
CTC1_L_00308025-02
1 36988U 24637ZL  26037.47804398  .00000000  00000+0  00000-0 0  9996
2 36988  40.0000 288.0000 0000000   0.0000  18.0000 14.60983372    11
CTC1_L_00308025-03
1 36989U 24628QQ  26037.47804398  .00000000  00000+0  00000-0 0  9997
2 36989  40.0000 288.0000 0000000   0.0000 108.0000 14.60983372    12
CTC1_L_00308025-04
1 36990U 26124OG  26037.47804398  .00000000  00000+0  00000-0 0  9992
2 36990  40.0000 288.0000 0000000   0.0000 198.0000 14.60983372    13
CTC1_L_00308026-01
1 36991U 25870ZJ  26037.47804398  .00000000  00000+0  00000-0 0  9990
2 36991  40.0000 300.0000 0000000   0.0000 300.0000 14.60983372    14
CTC1_L_00308026-02
1 36992U 23140YZ  26037.47804398  .00000000  00000+0  00000-0 0  9999
2 36992  40.0000 300.0000 0000000   0.0000  30.0000 14.60983372    15
CTC1_L_00308026-03
1 36993U 25830VR  26037.47804398  .00000000  00000+0  00000-0 0  9998
2 36993  40.0000 300.0000 0000000   0.0000 120.0000 14.60983372    16
CTC1_L_00308026-04
1 36994U 23947NQ  26037.47804398  .00000000  00000+0  00000-0 0  9996
2 36994  40.0000 300.0000 0000000   0.0000 210.0000 14.60983372    17
CTC1_L_00308027-01
1 36995U 22747MU  26037.47804398  .00000000  00000+0  00000-0 0  9994
2 36995  40.0000 312.0000 0000000   0.0000 312.0000 14.60983372    14
CTC1_L_00308027-02
1 36996U 24604CK  26037.47804398  .00000000  00000+0  00000-0 0  9999
2 36996  40.0000 312.0000 0000000   0.0000  42.0000 14.60983372    15
CTC1_L_00308027-03
1 36997U 23628SQ  26037.47804398  .00000000  00000+0  00000-0 0  9995
2 36997  40.0000 312.0000 0000000   0.0000 132.0000 14.60983372    16
CTC1_L_00308027-04
1 36998U 22957OY  26037.47804398  .00000000  00000+0  00000-0 0  9990
2 36998  40.0000 312.0000 0000000   0.0000 222.0000 14.60983372    17
CTC1_L_00308028-01
1 36999U 24992UC  26037.47804398  .00000000  00000+0  00000-0 0  9992
2 36999  40.0000 324.0000 0000000   0.0000 324.0000 14.60983372    14
CTC1_L_00308028-02
1 37000U 26115DD  26037.47804398  .00000000  00000+0  00000-0 0  9995
2 37000  40.0000 324.0000 0000000   0.0000  54.0000 14.60983372    18
CTC1_L_00308028-03
1 37001U 22513ZC  26037.47804398  .00000000  00000+0  00000-0 0  9994
2 37001  40.0000 324.0000 0000000   0.0000 144.0000 14.60983372    19
CTC1_L_00308028-04
1 37002U 22795VC  26037.47804398  .00000000  00000+0  00000-0 0  9997
2 37002  40.0000 324.0000 0000000   0.0000 234.0000 14.60983372    10
CTC1_L_00308029-01
1 37003U 25908UW  26037.47804398  .00000000  00000+0  00000-0 0  9997
2 37003  40.0000 336.0000 0000000   0.0000 336.0000 14.60983372    17
CTC1_L_00308029-02
1 37004U 22411ST  26037.47804398  .00000000  00000+0  00000-0 0  9994
2 37004  40.0000 336.0000 0000000   0.0000  66.0000 14.60983372    18
CTC1_L_00308029-03
1 37005U 23621M   26037.47804398  .00000000  00000+0  00000-0 0  9999
2 37005  40.0000 336.0000 0000000   0.0000 156.0000 14.60983372    19
CTC1_L_00308029-04
1 37006U 26607FI  26037.47804398  .00000000  00000+0  00000-0 0  9997
2 37006  40.0000 336.0000 0000000   0.0000 246.0000 14.60983372    10
CTC1_L_00308030-01
1 37007U 24024GD  26037.47804398  .00000000  00000+0  00000-0 0  9999
2 37007  40.0000 348.0000 0000000   0.0000 348.0000 14.60983372    17
CTC1_L_00308030-02
1 37008U 25291QL  26037.47804398  .00000000  00000+0  00000-0 0  9997
2 37008  40.0000 348.0000 0000000   0.0000  78.0000 14.60983372    18
CTC1_L_00308030-03
1 37009U 24214QY  26037.47804398  .00000000  00000+0  00000-0 0  9992
2 37009  40.0000 348.0000 0000000   0.0000 168.0000 14.60983372    19
CTC1_L_00308030-04
1 37010U 25484YP  26037.47804398  .00000000  00000+0  00000-0 0  9994
2 37010  40.0000 348.0000 0000000   0.0000 258.0000 14.60983372    11
